CCSDS_OMM_VERS = 2.0
CREATION_DATE  = 
ORIGINATOR     = 

OBJECT_NAME    = RSP-03
OBJECT_ID      = 1998-067XL
CENTER_NAME    = EARTH
REF_FRAME      = TEME
TIME_SYSTEM    = UTC
MEAN_ELEMENT_THEORY = SGP/SGP4

EPOCH          = 2026-02-01T11:13:06.162816
MEAN_MOTION    = 15.92872124
ECCENTRICITY   = .0005292
INCLINATION    = 51.6170
RA_OF_ASC_NODE = 234.4360
ARG_OF_PERICENTER = 227.2323
MEAN_ANOMALY   = 132.8239

EPHEMERIS_TYPE = 0
CLASSIFICATION_TYPE = U
NORAD_CAT_ID   = 65732
ELEMENT_SET_NO = 999
REV_AT_EPOCH   = 2117
BSTAR          = .1203E-2
MEAN_MOTION_DOT = .425812E-2
MEAN_MOTION_DDOT = .8148E-4

CCSDS_OMM_VERS = 2.0
CREATION_DATE  = 
ORIGINATOR     = 

OBJECT_NAME    = YOTSUBA-KULOVER
OBJECT_ID      = 1998-067XN
CENTER_NAME    = EARTH
REF_FRAME      = TEME
TIME_SYSTEM    = UTC
MEAN_ELEMENT_THEORY = SGP/SGP4

EPOCH          = 2026-02-01T00:15:07.800480
MEAN_MOTION    = 15.68909729
ECCENTRICITY   = .00044166
INCLINATION    = 51.6244
RA_OF_ASC_NODE = 245.7262
ARG_OF_PERICENTER = 199.2014
MEAN_ANOMALY   = 160.8817

EPHEMERIS_TYPE = 0
CLASSIFICATION_TYPE = U
NORAD_CAT_ID   = 65941
ELEMENT_SET_NO = 999
REV_AT_EPOCH   = 1772
BSTAR          = .77713403E-3
MEAN_MOTION_DOT = .91696E-3
MEAN_MOTION_DDOT = 0

CCSDS_OMM_VERS = 2.0
CREATION_DATE  = 
ORIGINATOR     = 

OBJECT_NAME    = BOTAN
OBJECT_ID      = 1998-067XP
CENTER_NAME    = EARTH
REF_FRAME      = TEME
TIME_SYSTEM    = UTC
MEAN_ELEMENT_THEORY = SGP/SGP4

EPOCH          = 2026-01-31T19:37:35.909472
MEAN_MOTION    = 15.79643607
ECCENTRICITY   = .00054135
INCLINATION    = 51.6186
RA_OF_ASC_NODE = 243.6587
ARG_OF_PERICENTER = 214.9689
MEAN_ANOMALY   = 145.0958

EPHEMERIS_TYPE = 0
CLASSIFICATION_TYPE = U
NORAD_CAT_ID   = 65942
ELEMENT_SET_NO = 999
REV_AT_EPOCH   = 1773
BSTAR          = .11205079E-2
MEAN_MOTION_DOT = .214162E-2
MEAN_MOTION_DDOT = 0

CCSDS_OMM_VERS = 2.0
CREATION_DATE  = 
ORIGINATOR     = 

OBJECT_NAME    = E-KAGAKU-1
OBJECT_ID      = 1998-067XQ
CENTER_NAME    = EARTH
REF_FRAME      = TEME
TIME_SYSTEM    = UTC
MEAN_ELEMENT_THEORY = SGP/SGP4

EPOCH          = 2026-01-31T21:12:12.553632
MEAN_MOTION    = 15.68815577
ECCENTRICITY   = .00032841
INCLINATION    = 51.6263
RA_OF_ASC_NODE = 246.3872
ARG_OF_PERICENTER = 210.1365
MEAN_ANOMALY   = 149.9444

EPHEMERIS_TYPE = 0
CLASSIFICATION_TYPE = U
NORAD_CAT_ID   = 65943
ELEMENT_SET_NO = 999
REV_AT_EPOCH   = 1770
BSTAR          = .8348729E-3
MEAN_MOTION_DOT = .98228E-3
MEAN_MOTION_DDOT = 0

CCSDS_OMM_VERS = 2.0
CREATION_DATE  = 
ORIGINATOR     = 

OBJECT_NAME    = HRC MONOBLOCK CAMERA
OBJECT_ID      = 1998-067XR
CENTER_NAME    = EARTH
REF_FRAME      = TEME
TIME_SYSTEM    = UTC
MEAN_ELEMENT_THEORY = SGP/SGP4

EPOCH          = 2026-02-01T07:41:26.849760
MEAN_MOTION    = 15.58463211
ECCENTRICITY   = .0000311
INCLINATION    = 51.6280
RA_OF_ASC_NODE = 248.5537
ARG_OF_PERICENTER = 25.1485
MEAN_ANOMALY   = 334.9523

EPHEMERIS_TYPE = 0
CLASSIFICATION_TYPE = U
NORAD_CAT_ID   = 66052
ELEMENT_SET_NO = 999
REV_AT_EPOCH   = 1671
BSTAR          = .47457E-3
MEAN_MOTION_DOT = .36562E-3
MEAN_MOTION_DDOT = 0

CCSDS_OMM_VERS = 2.0
CREATION_DATE  = 
ORIGINATOR     = 

OBJECT_NAME    = HTV-X1
OBJECT_ID      = 2025-241A
CENTER_NAME    = EARTH
REF_FRAME      = TEME
TIME_SYSTEM    = UTC
MEAN_ELEMENT_THEORY = SGP/SGP4

EPOCH          = 2026-02-01T02:43:09.183936
MEAN_MOTION    = 15.48314896
ECCENTRICITY   = .00111278
INCLINATION    = 51.6318
RA_OF_ASC_NODE = 253.1662
ARG_OF_PERICENTER = 51.9836
MEAN_ANOMALY   = 308.2155

EPHEMERIS_TYPE = 0
CLASSIFICATION_TYPE = U
NORAD_CAT_ID   = 66174
ELEMENT_SET_NO = 999
REV_AT_EPOCH   = 51
BSTAR          = .12933381E-3
MEAN_MOTION_DOT = .6524E-4
MEAN_MOTION_DDOT = 0

CCSDS_OMM_VERS = 2.0
CREATION_DATE  = 
ORIGINATOR     = 

OBJECT_NAME    = SZ-21 MODULE
OBJECT_ID      = 2025-246C
CENTER_NAME    = EARTH
REF_FRAME      = TEME
TIME_SYSTEM    = UTC
MEAN_ELEMENT_THEORY = SGP/SGP4

EPOCH          = 2026-02-01T10:20:00.170592
MEAN_MOTION    = 15.65808489
ECCENTRICITY   = .0003343
INCLINATION    = 41.4757
RA_OF_ASC_NODE = 66.0954
ARG_OF_PERICENTER = 264.6258
MEAN_ANOMALY   = 95.4202

EPHEMERIS_TYPE = 0
CLASSIFICATION_TYPE = U
NORAD_CAT_ID   = 66515
ELEMENT_SET_NO = 999
REV_AT_EPOCH   = 1238
BSTAR          = .27563E-3
MEAN_MOTION_DOT = .28539E-3
MEAN_MOTION_DDOT = 0

CCSDS_OMM_VERS = 2.0
CREATION_DATE  = 
ORIGINATOR     = 

OBJECT_NAME    = SHENZHOU-22
OBJECT_ID      = 2025-272A
CENTER_NAME    = EARTH
REF_FRAME      = TEME
TIME_SYSTEM    = UTC
MEAN_ELEMENT_THEORY = SGP/SGP4

EPOCH          = 2026-01-31T09:16:26.859072
MEAN_MOTION    = 15.61427822
ECCENTRICITY   = .00089098
INCLINATION    = 41.4674
RA_OF_ASC_NODE = 74.8264
ARG_OF_PERICENTER = 46.9753
MEAN_ANOMALY   = 313.1831

EPHEMERIS_TYPE = 0
CLASSIFICATION_TYPE = U
NORAD_CAT_ID   = 66645
ELEMENT_SET_NO = 999
REV_AT_EPOCH   = 26764
BSTAR          = .32370793E-3
MEAN_MOTION_DOT = .28253E-3
MEAN_MOTION_DDOT = 0

CCSDS_OMM_VERS = 2.0
CREATION_DATE  = 
ORIGINATOR     = 

OBJECT_NAME    = SOYUZ-MS 28
OBJECT_ID      = 2025-275A
CENTER_NAME    = EARTH
REF_FRAME      = TEME
TIME_SYSTEM    = UTC
MEAN_ELEMENT_THEORY = SGP/SGP4

EPOCH          = 2026-02-01T10:27:52.052832
MEAN_MOTION    = 15.48319189
ECCENTRICITY   = .0011128
INCLINATION    = 51.6317
RA_OF_ASC_NODE = 251.5712
ARG_OF_PERICENTER = 53.0689
MEAN_ANOMALY   = 307.1316

EPHEMERIS_TYPE = 0
CLASSIFICATION_TYPE = U
NORAD_CAT_ID   = 66664
ELEMENT_SET_NO = 999
REV_AT_EPOCH   = 55071
BSTAR          = .12479E-3
MEAN_MOTION_DOT = .628E-4
MEAN_MOTION_DDOT = 0

CCSDS_OMM_VERS = 2.0
CREATION_DATE  = 
ORIGINATOR     = 

OBJECT_NAME    = DUPLEX
OBJECT_ID      = 1998-067XS
CENTER_NAME    = EARTH
REF_FRAME      = TEME
TIME_SYSTEM    = UTC
MEAN_ELEMENT_THEORY = SGP/SGP4

EPOCH          = 2026-02-01T00:24:14.088672
MEAN_MOTION    = 15.53632760
ECCENTRICITY   = .00016023
INCLINATION    = 51.6290
RA_OF_ASC_NODE = 252.5255
ARG_OF_PERICENTER = 80.9639
MEAN_ANOMALY   = 279.1532

EPHEMERIS_TYPE = 0
CLASSIFICATION_TYPE = U
NORAD_CAT_ID   = 66906
ELEMENT_SET_NO = 999
REV_AT_EPOCH   = 942
BSTAR          = .41378975E-3
MEAN_MOTION_DOT = .26515E-3
MEAN_MOTION_DDOT = 0

CCSDS_OMM_VERS = 2.0
CREATION_DATE  = 
ORIGINATOR     = 

OBJECT_NAME    = 1998-067XT
OBJECT_ID      = 1998-067XT
CENTER_NAME    = EARTH
REF_FRAME      = TEME
TIME_SYSTEM    = UTC
MEAN_ELEMENT_THEORY = SGP/SGP4

EPOCH          = 2026-01-31T20:18:51.156288
MEAN_MOTION    = 15.59907385
ECCENTRICITY   = .00027892
INCLINATION    = 51.6268
RA_OF_ASC_NODE = 252.1368
ARG_OF_PERICENTER = 161.7115
MEAN_ANOMALY   = 198.3979

EPHEMERIS_TYPE = 0
CLASSIFICATION_TYPE = U
NORAD_CAT_ID   = 66907
ELEMENT_SET_NO = 999
REV_AT_EPOCH   = 941
BSTAR          = .95076906E-3
MEAN_MOTION_DOT = .78348E-3
MEAN_MOTION_DDOT = 0

CCSDS_OMM_VERS = 2.0
CREATION_DATE  = 
ORIGINATOR     = 

OBJECT_NAME    = 1998-067XU
OBJECT_ID      = 1998-067XU
CENTER_NAME    = EARTH
REF_FRAME      = TEME
TIME_SYSTEM    = UTC
MEAN_ELEMENT_THEORY = SGP/SGP4

EPOCH          = 2026-01-31T20:18:16.033824
MEAN_MOTION    = 15.59932347
ECCENTRICITY   = .00026059
INCLINATION    = 51.6262
RA_OF_ASC_NODE = 252.1321
ARG_OF_PERICENTER = 161.1183
MEAN_ANOMALY   = 198.9907

EPHEMERIS_TYPE = 0
CLASSIFICATION_TYPE = U
NORAD_CAT_ID   = 66908
ELEMENT_SET_NO = 999
REV_AT_EPOCH   = 941
BSTAR          = .10124197E-2
MEAN_MOTION_DOT = .83595E-3
MEAN_MOTION_DDOT = 0

